satname,norad_id,inclination_deg,eccentricity,mean_motion_rev_per_day,perigee_km,apogee_km,l1,l2
STARLINK-1541,46052,53.1589,0.0001686,15.74614555,344.5945899873104,346.86187734410305,1 46052U 20055AB  26128.00002315  .00636497  00000+0  39575-2 0  9994,2 46052  53.1589 192.8525 0001686  60.4437 320.3636 15.74614555  5839
STARLINK-1543,46053,53.1596,0.0001227,15.31697008,469.90855593479773,471.5892725381509,1 46053U 20055AC  26127.57758026 -.00000180  00000+0  59538-5 0  9992,2 46053  53.1596 200.2045 0001227  73.5241 286.5895 15.31697008318090
STARLINK-1548,46054,53.1593,0.0001316,15.31680071,469.89808315110076,471.7007232124188,1 46054U 20055AD  26127.91783178 -.00002578  00000+0 -71388-4 0  9997,2 46054  53.1593 198.6968 0001316  92.9574 267.1578 15.31680071318146
STARLINK-1554,46055,53.1572,0.0001217,15.31696435,469.91711270211545,471.5841319493893,1 46055U 20055AE  26127.89917284 -.00002137  00000+0 -57128-4 0  9999,2 46055  53.1572 198.7258 0001217  91.6632 268.4509 15.31696435318147
STARLINK-1564,46058,53.1583,0.0001238,15.30190197,474.39589095674546,476.0927881764219,1 46058U 20055AH  26127.92345513 -.00000671  00000+0 -10539-4 0  9992,2 46058  53.1583 199.2339 0001238  83.4171 276.6970 15.30190197318133
STARLINK-1570,46059,53.1594,0.0001155,15.31702749,469.94075626547965,471.52284495842014,1 46059U 20055AJ  26127.92712436  .00000888  00000+0  40381-4 0  9991,2 46059  53.1594 198.4821 0001155  78.7440 281.3691 15.31702749318100
STARLINK-1572,46060,53.161,0.0001464,15.30146962,474.370081973615,476.37678982924626,1 46060U 20055AK  26127.57790148  .00008117  00000+0  28635-3 0  9990,2 46060  53.1610 200.5836 0001464 106.2230 253.8932 15.30146962318053
STARLINK-1573,46061,53.1583,0.0001303,15.31703597,469.8368655014601,471.6216800521461,1 46061U 20055AL  26127.91312829 -.00000695  00000+0 -10636-4 0  9993,2 46061  53.1583 198.5147 0001303  81.7705 278.3444 15.31703597318144
STARLINK-1577,46063,53.1582,0.0001084,15.31694596,470.0136843033015,471.4985243283172,1 46063U 20055AN  26127.48434348 -.00001865  00000+0 -48365-4 0  9998,2 46063  53.1582 200.5024 0001084  69.3237 290.7880 15.31694596318073
STARLINK-1583,46064,53.1584,0.0001642,15.30190862,474.1170290860464,476.36767886589223,1 46064U 20055AP  26127.47670381 -.00004802  00000+0 -15012-3 0  9993,2 46064  53.1584 200.8037 0001642  74.3884 285.7298 15.30190862318069
STARLINK-1536,46070,53.1599,0.000117,15.31696822,469.94814897782,471.55078841149407,1 46070U 20055AV  26127.89118882 -.00001348  00000+0 -31677-4 0  9997,2 46070  53.1599 186.4974 0001170  70.6755 289.4373 15.31696822318303
STARLINK-1542,46073,53.1463,0.0001453,15.29041651,477.67957908830067,479.67216890948475,1 46073U 20055AY  26128.00002315  .00091138  00000+0  31624-2 0  9991,2 46073  53.1463 188.8704 0001453  75.8136  76.0512 15.29041651  5711
STARLINK-1549,46074,53.0505,0.0003322,15.27252459,481.7504350131412,486.3096587991049,1 46074U 20055AZ  26127.54144867  .00025429  00000+0  94925-3 0  9993,2 46074  53.0505 187.8314 0003322  15.7001 344.4099 15.27252459318239
STARLINK-1551,46075,53.1599,0.0001169,15.30191212,474.4401490045411,476.04246885316934,1 46075U 20055BA  26127.65312913  .00000046  00000+0  13679-4 0  9991,2 46075  53.1599 187.1823 0001169  89.4171 270.6963 15.30191212318261
STARLINK-1552,46076,53.1581,0.0001333,15.30190429,474.330091208868,476.15720248931757,1 46076U 20055BB  26127.53934315 -.00001224  00000+0 -29207-4 0  9990,2 46076  53.1581 187.6249 0001333  91.9615 268.1538 15.30190429318230
STARLINK-1559,46077,53.0221,0.0002818,15.35533002,457.4109898883571,461.26459068016175,1 46077U 20055BC  26127.77235625  .00037234  00000+0  10683-2 0  9999,2 46077  53.0221 157.6406 0002818   1.4844 358.6166 15.35533002318642
STARLINK-1566,46079,53.1606,0.0001181,15.31695941,469.94324111804417,471.5609487222637,1 46079U 20055BE  26127.87279687 -.00001347  00000+0 -31663-4 0  9999,2 46079  53.1606 185.9536 0001181  92.9289 267.1848 15.31695941318301
STARLINK-1568,46080,53.0587,0.0004645,15.51528676,409.10800850927717,415.4162893186185,1 46080U 20055BF  26127.59675625  .00031678  00000+0  53175-3 0  9991,2 46080  53.0587 110.8207 0004645   2.7563 357.3470 15.51528676319322
STARLINK-1578,46082,53.159,0.0001464,15.3171879,469.6813163939687,471.68665117802175,1 46082U 20055BH  26127.87720639  .00008216  00000+0  27606-3 0  9992,2 46082  53.1590 186.4519 0001464  50.8555 309.2577 15.31718790318290
STARLINK-1579,46083,53.1614,9.34e-05,15.31695831,470.112736553805,471.3921090979884,1 46083U 20055BJ  26127.86348726  .00000148  00000+0  16523-4 0  9998,2 46083  53.1614 186.0482 0000934  91.6224 268.4884 15.31695831318297
STARLINK-1622,46128,53.0188,0.0003208,15.75982306,339.6815998058637,343.99313536010413,1 46128U 20057M   26128.00002315  .00073266  00000+0  46257-3 0  9995,2 46128  53.0188 290.8255 0003208 329.7354 211.1814 15.75982306  5677
STARLINK-1623,46129,53.046,7.65e-05,15.68872123,361.609870622392,362.6411307850003,1 46129U 20057N   26127.96381900  .00083789  00000+0  71363-3 0  9997,2 46129  53.0460 327.2533 0000765 235.5418 124.5526 15.68872123316179
STARLINK-1624,46130,53.0319,0.0008108,15.9447943,284.3589587253273,295.17162908512455,1 46130U 20057P   26128.00002315  .00370949  65199-4  96331-3 0  9999,2 46130  53.0319 295.2012 0008108 269.6282 242.3708 15.94479430  5861
STARLINK-1596,46141,53.0397,0.0002647,15.54539861,401.6954297666862,405.2856233792545,1 46141U 20057AA  26127.88966487  .00091036  00000+0  13480-2 0  9990,2 46141  53.0397 306.8209 0002647 265.4727  94.5981 15.54539861316457
STARLINK-1597,46142,53.0458,0.0002588,15.68591644,361.18437061808163,364.67354635819447,1 46142U 20057AB  26127.93473479  .00078564  00000+0  67755-3 0  9997,2 46142  53.0458   7.0778 0002588  64.2384 295.8899 15.68591644315607
STARLINK-1606,46144,53.0394,0.0003644,15.78722506,331.61325356231646,336.5051021367344,1 46144U 20057AD  26128.00002315  .00167610  00000+0  92195-3 0  9992,2 46144  53.0394 322.6700 0003644 214.2371 281.7609 15.78722506  5991
STARLINK-1608,46146,53.1601,0.0001515,15.33278293,465.0023294638477,467.0761148591628,1 46146U 20057AF  26127.13263611  .00053005  00000+0  16254-2 0  9998,2 46146  53.1601  37.4827 0001515 161.3399 198.7659 15.33278293315135
STARLINK-1667,46155,53.0161,0.0004979,15.78438992,331.52049948234344,338.20530478488945,1 46155U 20057AQ  26128.00002315  .00103433  00000+0  58181-3 0  9994,2 46155  53.0161 290.9063 0004979 321.0581 173.7660 15.78438992  5996
